[{"OBJECT_NAME":"STARLINK-35527","OBJECT_ID":"2025-236G","EPOCH":"2026-03-09T09:11:10.680000","MEAN_MOTION":15.30209333,"ECCENTRICITY":9.908e-5,"INCLINATION":53.1581,"RA_OF_ASC_NODE":105.5807,"ARG_OF_PERICENTER":91.5245,"MEAN_ANOMALY":268.5869,"EPHEMERIS_TYPE":0,"CLASSIFICATION_TYPE":"U","NORAD_CAT_ID":66092,"ELEMENT_SET_NO":999,"REV_AT_EPOCH":2289,"BSTAR":0.00067298973,"MEAN_MOTION_DOT":0.00019631,"MEAN_MOTION_DDOT":0},{"OBJECT_NAME":"CZ-4B DEB","OBJECT_ID":"1999-057DZ","EPOCH":"2026-03-09T09:52:12.897696","MEAN_MOTION":15.33653758,"ECCENTRICITY":0.00127381,"INCLINATION":98.4932,"RA_OF_ASC_NODE":238.6814,"ARG_OF_PERICENTER":254.7139,"MEAN_ANOMALY":105.2693,"EPHEMERIS_TYPE":0,"CLASSIFICATION_TYPE":"U","NORAD_CAT_ID":26235,"ELEMENT_SET_NO":999,"REV_AT_EPOCH":38912,"BSTAR":0.0023807093,"MEAN_MOTION_DOT":0.00078286,"MEAN_MOTION_DDOT":0}]
